{"type": "FeatureCollection", "features": [ {"type": "Feature", "properties": {"norad_id": 30447, "name": "FENGYUN 1C DEB", "group": "fengyun-1c-debris", "lat": 79.62373825152851, "lon": 163.33395966557435, "alt_km": 698.8329254764003, "timestamp": "2025-12-26T08:37:54.856824+00:00", "meta": {"OBJECT_NAME": "FENGYUN 1C DEB", "OBJECT_ID": "1999-025AFJ", "EPOCH": "2025-12-25T14:21:47.946240", "MEAN_MOTION": 14.56867766, "ECCENTRICITY": 0.0060094, "INCLINATION": 98.9701, "RA_OF_ASC_NODE": 222.1288, "ARG_OF_PERICENTER": 352.7131, "MEAN_ANOMALY": 61.4293, "EPHEMERIS_TYPE": 0, "CLASSIFICATION_TYPE": "U", "NORAD_CAT_ID": 30447, "ELEMENT_SET_NO": 999, "REV_AT_EPOCH": 98283, "BSTAR": 0.0027234, "MEAN_MOTION_DOT": 0.00012479, "MEAN_MOTION_DDOT": 0}, "tle": {"line1": "1 30447U 99025AFJ 25359.59847160  .00012479  00000+0  27234-2 0  9999", "line2": "2 30447  98.9701 222.1288 0060094 352.7131  61.4293 14.56867766982831"}}, "geometry": {"type": "Point", "coordinates": [163.33395966557435, 79.62373825152851]}}, {"type": "Feature", "properties": {"norad_id": 30448, "name": "FENGYUN 1C DEB", "group": "fengyun-1c-debris", "lat": -10.304059124684013, "lon": -89.35173521225676, "alt_km": 787.373736198424, "timestamp": "2025-12-26T08:37:54.856835+00:00", "meta": {"OBJECT_NAME": "FENGYUN 1C DEB", "OBJECT_ID": "1999-025AFK", "EPOCH": "2025-12-25T11:59:30.082272", "MEAN_MOTION": 14.35258929, "ECCENTRICITY": 0.0016937, "INCLINATION": 98.8294, "RA_OF_ASC_NODE": 91.3881, "ARG_OF_PERICENTER": 331.0737, "MEAN_ANOMALY": 98.2744, "EPHEMERIS_TYPE": 0, "CLASSIFICATION_TYPE": "U", "NORAD_CAT_ID": 30448, "ELEMENT_SET_NO": 999, "REV_AT_EPOCH": 97521, "BSTAR": 0.001929, "MEAN_MOTION_DOT": 5.489e-05, "MEAN_MOTION_DDOT": 0}, "tle": {"line1": "1 30448U 99025AFK 25359.49965373  .00005489  00000+0  19290-2 0  9992", "line2": "2 30448  98.8294  91.3881 0016937 331.0737  98.2744 14.35258929975217"}}, "geometry": {"type": "Point", "coordinates": [-89.35173521225676, -10.304059124684013]}}, {"type": "Feature", "properties": {"norad_id": 30450, "name": "FENGYUN 1C DEB", "group": "fengyun-1c-debris", "lat": 1.2263272156942366, "lon": -165.7301699104133, "alt_km": 559.2776030507093, "timestamp": "2025-12-26T08:37:54.856845+00:00", "meta": {"OBJECT_NAME": "FENGYUN 1C DEB", "OBJECT_ID": "1999-025AFM", "EPOCH": "2025-12-25T23:52:56.792064", "MEAN_MOTION": 14.61868615, "ECCENTRICITY": 0.0189757, "INCLINATION": 98.0803, "RA_OF_ASC_NODE": 13.739, "ARG_OF_PERICENTER": 166.6066, "MEAN_ANOMALY": 254.1031, "EPHEMERIS_TYPE": 0, "CLASSIFICATION_TYPE": "U", "NORAD_CAT_ID": 30450, "ELEMENT_SET_NO": 999, "REV_AT_EPOCH": 99736, "BSTAR": 0.00049828, "MEAN_MOTION_DOT": 3.169e-05, "MEAN_MOTION_DDOT": 0}, "tle": {"line1": "1 30450U 99025AFM 25359.99510176  .00003169  00000+0  49828-3 0  9991", "line2": "2 30450  98.0803  13.7390 0189757 166.6066 254.1031 14.61868615997369"}}, "geometry": {"type": "Point", "coordinates": [-165.7301699104133, 1.2263272156942366]}}, {"type": "Feature", "properties": {"norad_id": 30452, "name": "FENGYUN 1C DEB", "group": "fengyun-1c-debris", "lat": 31.76155205115793, "lon": -33.319253195990825, "alt_km": 659.6996264955696, "timestamp": "2025-12-26T08:37:54.856856+00:00", "meta": {"OBJECT_NAME": "FENGYUN 1C DEB", "OBJECT_ID": "1999-025AFP", "EPOCH": "2025-12-24T08:40:20.648640", "MEAN_MOTION": 14.65017714, "ECCENTRICITY": 0.0049258, "INCLINATION": 99.3216, "RA_OF_ASC_NODE": 138.5819, "ARG_OF_PERICENTER": 218.1125, "MEAN_ANOMALY": 196.5488, "EPHEMERIS_TYPE": 0, "CLASSIFICATION_TYPE": "U", "NORAD_CAT_ID": 30452, "ELEMENT_SET_NO": 999, "REV_AT_EPOCH": 98277, "BSTAR": 0.0045907433, "MEAN_MOTION_DOT": 0.00025077, "MEAN_MOTION_DDOT": 0}, "tle": {"line1": "1 30452U 99025AFP 25358.36135010  .00025077  00000+0  45907-2 0  9998", "line2": "2 30452  99.3216 138.5819 0049258 218.1125 196.5488 14.65017714982779"}}, "geometry": {"type": "Point", "coordinates": [-33.319253195990825, 31.76155205115793]}}, {"type": "Feature", "properties": {"norad_id": 30453, "name": "FENGYUN 1C DEB", "group": "fengyun-1c-debris", "lat": 49.16241157550986, "lon": 61.79138515864265, "alt_km": 865.2882786320934, "timestamp": "2025-12-26T08:37:54.856866+00:00", "meta": {"OBJECT_NAME": "FENGYUN 1C DEB", "OBJECT_ID": "1999-025AFQ", "EPOCH": "2025-12-25T11:05:27.687264", "MEAN_MOTION": 14.24847132, "ECCENTRICITY": 0.0116227, "INCLINATION": 98.8117, "RA_OF_ASC_NODE": 71.2292, "ARG_OF_PERICENTER": 189.7793, "MEAN_ANOMALY": 299.8815, "EPHEMERIS_TYPE": 0, "CLASSIFICATION_TYPE": "U", "NORAD_CAT_ID": 30453, "ELEMENT_SET_NO": 999, "REV_AT_EPOCH": 97415, "BSTAR": 0.0015662, "MEAN_MOTION_DOT": 3.878e-05, "MEAN_MOTION_DDOT": 0}, "tle": {"line1": "1 30453U 99025AFQ 25359.46212601  .00003878  00000+0  15662-2 0  9993", "line2": "2 30453  98.8117  71.2292 0116227 189.7793 299.8815 14.24847132974151"}}, "geometry": {"type": "Point", "coordinates": [61.79138515864265, 49.16241157550986]}}, {"type": "Feature", "properties": {"norad_id": 30454, "name": "FENGYUN 1C DEB", "group": "fengyun-1c-debris", "lat": -46.79255323059191, "lon": -21.827527912135242, "alt_km": 961.4173784795676, "timestamp": "2025-12-26T08:37:54.856876+00:00", "meta": {"OBJECT_NAME": "FENGYUN 1C DEB", "OBJECT_ID": "1999-025AFR", "EPOCH": "2025-12-25T21:15:08.026848", "MEAN_MOTION": 14.15479466, "ECCENTRICITY": 0.0171397, "INCLINATION": 98.1345, "RA_OF_ASC_NODE": 328.9811, "ARG_OF_PERICENTER": 156.5811, "MEAN_ANOMALY": 260.5462, "EPHEMERIS_TYPE": 0, "CLASSIFICATION_TYPE": "U", "NORAD_CAT_ID": 30454, "ELEMENT_SET_NO": 999, "REV_AT_EPOCH": 96146, "BSTAR": 0.0016549944, "MEAN_MOTION_DOT": 3.691e-05, "MEAN_MOTION_DDOT": 0}, "tle": {"line1": "1 30454U 99025AFR 25359.88550957  .00003691  00000+0  16550-2 0  9999", "line2": "2 30454  98.1345 328.9811 0171397 156.5811 260.5462 14.15479466961463"}}, "geometry": {"type": "Point", "coordinates": [-21.827527912135242, -46.79255323059191]}}, {"type": "Feature", "properties": {"norad_id": 30462, "name": "FENGYUN 1C DEB", "group": "fengyun-1c-debris", "lat": -33.59120395505174, "lon": -5.829045814867968, "alt_km": 918.6132526624988, "timestamp": "2025-12-26T08:37:54.856887+00:00", "meta": {"OBJECT_NAME": "FENGYUN 1C DEB", "OBJECT_ID": "1999-025AFZ", "EPOCH": "2025-12-25T12:55:25.219776", "MEAN_MOTION": 14.06274119, "ECCENTRICITY": 0.0139089, "INCLINATION": 98.818, "RA_OF_ASC_NODE": 347.4533, "ARG_OF_PERICENTER": 214.043, "MEAN_ANOMALY": 275.5811, "EPHEMERIS_TYPE": 0, "CLASSIFICATION_TYPE": "U", "NORAD_CAT_ID": 30462, "ELEMENT_SET_NO": 999, "REV_AT_EPOCH": 96973, "BSTAR": 5.1333e-05, "MEAN_MOTION_DOT": 4.9e-07, "MEAN_MOTION_DDOT": 0}, "tle": {"line1": "1 30462U 99025AFZ 25359.53848634  .00000049  00000+0  51333-4 0  9996", "line2": "2 30462  98.8180 347.4533 0139089 214.0430 275.5811 14.06274119969732"}}, "geometry": {"type": "Point", "coordinates": [-5.829045814867968, -33.59120395505174]}}, {"type": "Feature", "properties": {"norad_id": 30464, "name": "FENGYUN 1C DEB", "group": "fengyun-1c-debris", "lat": -30.92554084430242, "lon": -134.9190432564311, "alt_km": 786.632153458555, "timestamp": "2025-12-26T08:37:54.856897+00:00", "meta": {"OBJECT_NAME": "FENGYUN 1C DEB", "OBJECT_ID": "1999-025AGB", "EPOCH": "2025-12-26T02:39:28.201248", "MEAN_MOTION": 14.10250458, "ECCENTRICITY": 0.010871, "INCLINATION": 98.8352, "RA_OF_ASC_NODE": 50.183, "ARG_OF_PERICENTER": 220.5141, "MEAN_ANOMALY": 167.8661, "EPHEMERIS_TYPE": 0, "CLASSIFICATION_TYPE": "U", "NORAD_CAT_ID": 30464, "ELEMENT_SET_NO": 999, "REV_AT_EPOCH": 97252, "BSTAR": 4.9221e-05, "MEAN_MOTION_DOT": 4.8e-07, "MEAN_MOTION_DDOT": 0}, "tle": {"line1": "1 30464U 99025AGB 25360.11074307  .00000048  00000+0  49221-4 0  9994", "line2": "2 30464  98.8352  50.1830 0108710 220.5141 167.8661 14.10250458972523"}}, "geometry": {"type": "Point", "coordinates": [-134.9190432564311, -30.92554084430242]}}, {"type": "Feature", "properties": {"norad_id": 30465, "name": "FENGYUN 1C DEB", "group": "fengyun-1c-debris", "lat": 41.853610923781524, "lon": -83.14171798013234, "alt_km": 785.0370684890077, "timestamp": "2025-12-26T08:37:54.856907+00:00", "meta": {"OBJECT_NAME": "FENGYUN 1C DEB", "OBJECT_ID": "1999-025AGC", "EPOCH": "2025-12-25T19:10:36.738048", "MEAN_MOTION": 14.34000474, "ECCENTRICITY": 0.00163159, "INCLINATION": 98.8284, "RA_OF_ASC_NODE": 88.2835, "ARG_OF_PERICENTER": 349.2128, "MEAN_ANOMALY": 135.6011, "EPHEMERIS_TYPE": 0, "CLASSIFICATION_TYPE": "U", "NORAD_CAT_ID": 30465, "ELEMENT_SET_NO": 999, "REV_AT_EPOCH": 97545, "BSTAR": 0.0019274779, "MEAN_MOTION_DOT": 5.347e-05, "MEAN_MOTION_DDOT": 0}, "tle": {"line1": "1 30465U 99025AGC 25359.79903632  .00005347  00000+0  19275-2 0  9990", "line2": "2 30465  98.8284  88.2835 0016315 349.2128 135.6011 14.34000474975452"}}, "geometry": {"type": "Point", "coordinates": [-83.14171798013234, 41.853610923781524]}}, {"type": "Feature", "properties": {"norad_id": 30466, "name": "FENGYUN 1C DEB", "group": "fengyun-1c-debris", "lat": -59.4559140621941, "lon": -154.81208091439814, "alt_km": 843.110843405063, "timestamp": "2025-12-26T08:37:54.856917+00:00", "meta": {"OBJECT_NAME": "FENGYUN 1C DEB", "OBJECT_ID": "1999-025AGD", "EPOCH": "2025-12-26T02:42:41.599872", "MEAN_MOTION": 14.22596208, "ECCENTRICITY": 0.0115913, "INCLINATION": 98.6539, "RA_OF_ASC_NODE": 39.9025, "ARG_OF_PERICENTER": 345.3614, "MEAN_ANOMALY": 73.8359, "EPHEMERIS_TYPE": 0, "CLASSIFICATION_TYPE": "U", "NORAD_CAT_ID": 30466, "ELEMENT_SET_NO": 999, "REV_AT_EPOCH": 97541, "BSTAR": 0.00099107, "MEAN_MOTION_DOT": 2.329e-05, "MEAN_MOTION_DDOT": 0}, "tle": {"line1": "1 30466U 99025AGD 25360.11298148  .00002329  00000+0  99107-3 0  9998", "line2": "2 30466  98.6539  39.9025 0115913 345.3614  73.8359 14.22596208975415"}}, "geometry": {"type": "Point", "coordinates": [-154.81208091439814, -59.4559140621941]}}]}